COSMOS 1933             
1 18958U 88020A   25365.35174271  .00008200  00000+0  40990-3 0  9994
2 18958  82.5139 318.4873 0006361  81.7221 278.4734 15.17292457 39866
SL-3 R/B                
1 19046U 88032B   25365.50610919  .00008760  00000+0  41791-3 0  9998
2 19046  97.5091 344.1007 0028295 110.1728 250.2554 15.18956927 41751
SL-16 R/B               
1 19120U 88039B   25365.27891700  .00000137  00000+0  87287-4 0  9992
2 19120  71.0127 213.1997 0019544  84.5094 275.8260 14.19600382948676
COSMOS 1953             
1 19210U 88050A   25363.34859606  .00008063  00000+0  30114-3 0  9992
2 19210  82.5080 228.9139 0012535  18.6006 341.5688 15.27141359 27045
SL-8 R/B                
1 19257U 88053B   25365.40357573  .00000484  00000+0  16537-3 0  9993
2 19257  74.0462 238.3227 0018993  75.3984  96.9910 14.38872412966771
COSMOS 1975             
1 19573U 88093A   25365.46172941  .00011795  00000+0  44585-3 0  9999
2 19573  82.5189 186.0816 0012767  54.1070 306.1352 15.26771812  8996
SL-14 R/B               
1 19574U 88093B   25365.36601259  .00001005  00000+0  11316-3 0  9997
2 19574  82.5319 106.1888 0019245 263.7702 160.2096 14.85573470990899
SL-16 R/B               
1 19650U 88102B   25365.24751921 -.00000129  00000+0 -41048-4 0  9996
2 19650  71.0006 295.5015 0012018 120.0326 240.1991 14.16142814917207
INTERCOSMOS 24          
1 20261U 89080A   25365.49284346  .00000952  00000+0  27123-3 0  9990
2 20261  82.6065 148.7617 1188966  91.0369 282.6853 12.59471240658212
SL-14 R/B               
1 20262U 89080C   25365.30542281  .00000544  00000+0  16220-3 0  9999
2 20262  82.5911 217.1010 1230251 341.1612  14.7479 12.50428894651607
DELTA 1 R/B             
1 20323U 89089B   25365.47105578  .00000741  00000+0  19222-3 0  9992
2 20323  97.0740 218.7392 0068601 339.4059  20.4376 14.50590614885845
ARIANE 40 R/B           
1 20443U 90005H   25365.15517216  .00000564  00000+0  19319-3 0  9996
2 20443  98.3218  62.8106 0010940  55.4484 304.7735 14.39814009882942
