CCSDS_OMM_VERS = 2.0
CREATION_DATE  = 
ORIGINATOR     = 

OBJECT_NAME    = COSMOS 1933
OBJECT_ID      = 1988-020A
CENTER_NAME    = EARTH
REF_FRAME      = TEME
TIME_SYSTEM    = UTC
MEAN_ELEMENT_THEORY = SGP/SGP4

EPOCH          = 2025-12-31T08:26:30.570144
MEAN_MOTION    = 15.17292457
ECCENTRICITY   = .0006361
INCLINATION    = 82.5139
RA_OF_ASC_NODE = 318.4873
ARG_OF_PERICENTER = 81.7221
MEAN_ANOMALY   = 278.4734

EPHEMERIS_TYPE = 0
CLASSIFICATION_TYPE = U
NORAD_CAT_ID   = 18958
ELEMENT_SET_NO = 999
REV_AT_EPOCH   = 3986
BSTAR          = .4099E-3
MEAN_MOTION_DOT = .82E-4
MEAN_MOTION_DDOT = 0

CCSDS_OMM_VERS = 2.0
CREATION_DATE  = 
ORIGINATOR     = 

OBJECT_NAME    = SL-3 R/B
OBJECT_ID      = 1988-032B
CENTER_NAME    = EARTH
REF_FRAME      = TEME
TIME_SYSTEM    = UTC
MEAN_ELEMENT_THEORY = SGP/SGP4

EPOCH          = 2025-12-31T12:08:47.834016
MEAN_MOTION    = 15.18956927
ECCENTRICITY   = .0028295
INCLINATION    = 97.5091
RA_OF_ASC_NODE = 344.1007
ARG_OF_PERICENTER = 110.1728
MEAN_ANOMALY   = 250.2554

EPHEMERIS_TYPE = 0
CLASSIFICATION_TYPE = U
NORAD_CAT_ID   = 19046
ELEMENT_SET_NO = 999
REV_AT_EPOCH   = 4175
BSTAR          = .41791E-3
MEAN_MOTION_DOT = .876E-4
MEAN_MOTION_DDOT = 0

CCSDS_OMM_VERS = 2.0
CREATION_DATE  = 
ORIGINATOR     = 

OBJECT_NAME    = SL-16 R/B
OBJECT_ID      = 1988-039B
CENTER_NAME    = EARTH
REF_FRAME      = TEME
TIME_SYSTEM    = UTC
MEAN_ELEMENT_THEORY = SGP/SGP4

EPOCH          = 2025-12-31T06:41:38.428800
MEAN_MOTION    = 14.19600382
ECCENTRICITY   = .0019544
INCLINATION    = 71.0127
RA_OF_ASC_NODE = 213.1997
ARG_OF_PERICENTER = 84.5094
MEAN_ANOMALY   = 275.8260

EPHEMERIS_TYPE = 0
CLASSIFICATION_TYPE = U
NORAD_CAT_ID   = 19120
ELEMENT_SET_NO = 999
REV_AT_EPOCH   = 94867
BSTAR          = .87287E-4
MEAN_MOTION_DOT = .137E-5
MEAN_MOTION_DDOT = 0

CCSDS_OMM_VERS = 2.0
CREATION_DATE  = 
ORIGINATOR     = 

OBJECT_NAME    = COSMOS 1953
OBJECT_ID      = 1988-050A
CENTER_NAME    = EARTH
REF_FRAME      = TEME
TIME_SYSTEM    = UTC
MEAN_ELEMENT_THEORY = SGP/SGP4

EPOCH          = 2025-12-29T08:21:58.699584
MEAN_MOTION    = 15.27141359
ECCENTRICITY   = .00125356
INCLINATION    = 82.5080
RA_OF_ASC_NODE = 228.9139
ARG_OF_PERICENTER = 18.6006
MEAN_ANOMALY   = 341.5688

EPHEMERIS_TYPE = 0
CLASSIFICATION_TYPE = U
NORAD_CAT_ID   = 19210
ELEMENT_SET_NO = 999
REV_AT_EPOCH   = 2704
BSTAR          = .30113736E-3
MEAN_MOTION_DOT = .8063E-4
MEAN_MOTION_DDOT = 0

CCSDS_OMM_VERS = 2.0
CREATION_DATE  = 
ORIGINATOR     = 

OBJECT_NAME    = SL-8 R/B
OBJECT_ID      = 1988-053B
CENTER_NAME    = EARTH
REF_FRAME      = TEME
TIME_SYSTEM    = UTC
MEAN_ELEMENT_THEORY = SGP/SGP4

EPOCH          = 2025-12-31T09:41:08.943072
MEAN_MOTION    = 14.38872412
ECCENTRICITY   = .0018993
INCLINATION    = 74.0462
RA_OF_ASC_NODE = 238.3227
ARG_OF_PERICENTER = 75.3984
MEAN_ANOMALY   = 96.9910

EPHEMERIS_TYPE = 0
CLASSIFICATION_TYPE = U
NORAD_CAT_ID   = 19257
ELEMENT_SET_NO = 999
REV_AT_EPOCH   = 96677
BSTAR          = .16537E-3
MEAN_MOTION_DOT = .484E-5
MEAN_MOTION_DDOT = 0

CCSDS_OMM_VERS = 2.0
CREATION_DATE  = 
ORIGINATOR     = 

OBJECT_NAME    = COSMOS 1975
OBJECT_ID      = 1988-093A
CENTER_NAME    = EARTH
REF_FRAME      = TEME
TIME_SYSTEM    = UTC
MEAN_ELEMENT_THEORY = SGP/SGP4

EPOCH          = 2025-12-31T11:04:53.421024
MEAN_MOTION    = 15.26771812
ECCENTRICITY   = .0012767
INCLINATION    = 82.5189
RA_OF_ASC_NODE = 186.0816
ARG_OF_PERICENTER = 54.1070
MEAN_ANOMALY   = 306.1352

EPHEMERIS_TYPE = 0
CLASSIFICATION_TYPE = U
NORAD_CAT_ID   = 19573
ELEMENT_SET_NO = 999
REV_AT_EPOCH   = 899
BSTAR          = .44585E-3
MEAN_MOTION_DOT = .11795E-3
MEAN_MOTION_DDOT = 0

CCSDS_OMM_VERS = 2.0
CREATION_DATE  = 
ORIGINATOR     = 

OBJECT_NAME    = SL-14 R/B
OBJECT_ID      = 1988-093B
CENTER_NAME    = EARTH
REF_FRAME      = TEME
TIME_SYSTEM    = UTC
MEAN_ELEMENT_THEORY = SGP/SGP4

EPOCH          = 2025-12-31T08:47:03.487776
MEAN_MOTION    = 14.85573470
ECCENTRICITY   = .0019245
INCLINATION    = 82.5319
RA_OF_ASC_NODE = 106.1888
ARG_OF_PERICENTER = 263.7702
MEAN_ANOMALY   = 160.2096

EPHEMERIS_TYPE = 0
CLASSIFICATION_TYPE = U
NORAD_CAT_ID   = 19574
ELEMENT_SET_NO = 999
REV_AT_EPOCH   = 99089
BSTAR          = .11316E-3
MEAN_MOTION_DOT = .1005E-4
MEAN_MOTION_DDOT = 0

CCSDS_OMM_VERS = 2.0
CREATION_DATE  = 
ORIGINATOR     = 

OBJECT_NAME    = SL-16 R/B
OBJECT_ID      = 1988-102B
CENTER_NAME    = EARTH
REF_FRAME      = TEME
TIME_SYSTEM    = UTC
MEAN_ELEMENT_THEORY = SGP/SGP4

EPOCH          = 2025-12-31T05:56:25.659744
MEAN_MOTION    = 14.16142814
ECCENTRICITY   = .0012018
INCLINATION    = 71.0006
RA_OF_ASC_NODE = 295.5015
ARG_OF_PERICENTER = 120.0326
MEAN_ANOMALY   = 240.1991

EPHEMERIS_TYPE = 0
CLASSIFICATION_TYPE = U
NORAD_CAT_ID   = 19650
ELEMENT_SET_NO = 999
REV_AT_EPOCH   = 91720
BSTAR          = -.41048E-4
MEAN_MOTION_DOT = -.129E-5
MEAN_MOTION_DDOT = 0

CCSDS_OMM_VERS = 2.0
CREATION_DATE  = 
ORIGINATOR     = 

OBJECT_NAME    = INTERCOSMOS 24
OBJECT_ID      = 1989-080A
CENTER_NAME    = EARTH
REF_FRAME      = TEME
TIME_SYSTEM    = UTC
MEAN_ELEMENT_THEORY = SGP/SGP4

EPOCH          = 2025-12-31T11:49:41.674944
MEAN_MOTION    = 12.59471240
ECCENTRICITY   = .1188966
INCLINATION    = 82.6065
RA_OF_ASC_NODE = 148.7617
ARG_OF_PERICENTER = 91.0369
MEAN_ANOMALY   = 282.6853

EPHEMERIS_TYPE = 0
CLASSIFICATION_TYPE = U
NORAD_CAT_ID   = 20261
ELEMENT_SET_NO = 999
REV_AT_EPOCH   = 65821
BSTAR          = .27123E-3
MEAN_MOTION_DOT = .952E-5
MEAN_MOTION_DDOT = 0

CCSDS_OMM_VERS = 2.0
CREATION_DATE  = 
ORIGINATOR     = 

OBJECT_NAME    = SL-14 R/B
OBJECT_ID      = 1989-080C
CENTER_NAME    = EARTH
REF_FRAME      = TEME
TIME_SYSTEM    = UTC
MEAN_ELEMENT_THEORY = SGP/SGP4

EPOCH          = 2025-12-31T07:19:48.530784
MEAN_MOTION    = 12.50428894
ECCENTRICITY   = .1230251
INCLINATION    = 82.5911
RA_OF_ASC_NODE = 217.1010
ARG_OF_PERICENTER = 341.1612
MEAN_ANOMALY   = 14.7479

EPHEMERIS_TYPE = 0
CLASSIFICATION_TYPE = U
NORAD_CAT_ID   = 20262
ELEMENT_SET_NO = 999
REV_AT_EPOCH   = 65160
BSTAR          = .1622E-3
MEAN_MOTION_DOT = .544E-5
MEAN_MOTION_DDOT = 0

CCSDS_OMM_VERS = 2.0
CREATION_DATE  = 
ORIGINATOR     = 

OBJECT_NAME    = DELTA 1 R/B
OBJECT_ID      = 1989-089B
CENTER_NAME    = EARTH
REF_FRAME      = TEME
TIME_SYSTEM    = UTC
MEAN_ELEMENT_THEORY = SGP/SGP4

EPOCH          = 2025-12-31T11:18:19.219392
MEAN_MOTION    = 14.50590614
ECCENTRICITY   = .0068601
INCLINATION    = 97.0740
RA_OF_ASC_NODE = 218.7392
ARG_OF_PERICENTER = 339.4059
MEAN_ANOMALY   = 20.4376

EPHEMERIS_TYPE = 0
CLASSIFICATION_TYPE = U
NORAD_CAT_ID   = 20323
ELEMENT_SET_NO = 999
REV_AT_EPOCH   = 88584
BSTAR          = .19222E-3
MEAN_MOTION_DOT = .741E-5
MEAN_MOTION_DDOT = 0

CCSDS_OMM_VERS = 2.0
CREATION_DATE  = 
ORIGINATOR     = 

OBJECT_NAME    = ARIANE 40 R/B
OBJECT_ID      = 1990-005H
CENTER_NAME    = EARTH
REF_FRAME      = TEME
TIME_SYSTEM    = UTC
MEAN_ELEMENT_THEORY = SGP/SGP4

EPOCH          = 2025-12-31T03:43:26.874624
MEAN_MOTION    = 14.39814009
ECCENTRICITY   = .00109409
INCLINATION    = 98.3218
RA_OF_ASC_NODE = 62.8106
ARG_OF_PERICENTER = 55.4484
MEAN_ANOMALY   = 304.7735

EPHEMERIS_TYPE = 0
CLASSIFICATION_TYPE = U
NORAD_CAT_ID   = 20443
ELEMENT_SET_NO = 999
REV_AT_EPOCH   = 88294
BSTAR          = .19318528E-3
MEAN_MOTION_DOT = .564E-5
MEAN_MOTION_DDOT = 0

